{"type": "FeatureCollection", "features": [{"type": "Feature", "properties": {"norad_id": 22490, "name": "SCD 1", "group": "resource", "lat": 21.600567721857622, "lon": -21.439417811754975, "alt_km": 737.8505130782032, "timestamp": "2025-12-12T11:38:31.072539+00:00", "meta": {"OBJECT_NAME": "SCD 1", "OBJECT_ID": "1993-009B", "EPOCH": "2025-12-12T03:41:26.414016", "MEAN_MOTION": 14.45998507, "ECCENTRICITY": 0.004178, "INCLINATION": 24.97, "RA_OF_ASC_NODE": 282.3047, "ARG_OF_PERICENTER": 318.798, "MEAN_ANOMALY": 173.3664, "EPHEMERIS_TYPE": 0, "CLASSIFICATION_TYPE": "U", "NORAD_CAT_ID": 22490, "ELEMENT_SET_NO": 999, "REV_AT_EPOCH": 73401, "BSTAR": 0.00015153, "MEAN_MOTION_DOT": 7.4e-06, "MEAN_MOTION_DDOT": 0}, "tle": {"line1": "1 22490U 93009B   25346.15377794  .00000740  00000+0  15153-3 0  9999", "line2": "2 22490  24.9700 282.3047 0041780 318.7980 173.3664 14.45998507734010"}}, "geometry": {"type": "Point", "coordinates": [-21.439417811754975, 21.600567721857622]}}, {"type": "Feature", "properties": {"norad_id": 25397, "name": "TECHSAT 1B (GO-32)", "group": "resource", "lat": -55.05457835173323, "lon": -17.212094534206354, "alt_km": 818.1619921924885, "timestamp": "2025-12-12T11:38:31.072573+00:00", "meta": {"OBJECT_NAME": "TECHSAT 1B (GO-32)", "OBJECT_ID": "1998-043D", "EPOCH": "2025-12-11T22:25:03.715392", "MEAN_MOTION": 14.2437668, "ECCENTRICITY": 0.0002072, "INCLINATION": 98.992, "RA_OF_ASC_NODE": 329.1275, "ARG_OF_PERICENTER": 58.5928, "MEAN_ANOMALY": 301.5453, "EPHEMERIS_TYPE": 0, "CLASSIFICATION_TYPE": "U", "NORAD_CAT_ID": 25397, "ELEMENT_SET_NO": 999, "REV_AT_EPOCH": 42467, "BSTAR": 9.221e-05, "MEAN_MOTION_DOT": 1.67e-06, "MEAN_MOTION_DDOT": 0}, "tle": {"line1": "1 25397U 98043D   25345.93407078  .00000167  00000+0  92210-4 0  9998", "line2": "2 25397  98.9920 329.1275 0002072  58.5928 301.5453 14.24376680424677"}}, "geometry": {"type": "Point", "coordinates": [-17.212094534206354, -55.05457835173323]}}, {"type": "Feature", "properties": {"norad_id": 25504, "name": "SCD 2", "group": "resource", "lat": 24.94180896141638, "lon": -123.19841353401226, "alt_km": 744.2936400556855, "timestamp": "2025-12-12T11:38:31.072590+00:00", "meta": {"OBJECT_NAME": "SCD 2", "OBJECT_ID": "1998-060A", "EPOCH": "2025-12-11T19:15:45.408960", "MEAN_MOTION": 14.45422604, "ECCENTRICITY": 0.00166284, "INCLINATION": 24.9932, "RA_OF_ASC_NODE": 147.6746, "ARG_OF_PERICENTER": 303.6253, "MEAN_ANOMALY": 190.8041, "EPHEMERIS_TYPE": 0, "CLASSIFICATION_TYPE": "U", "NORAD_CAT_ID": 25504, "ELEMENT_SET_NO": 999, "REV_AT_EPOCH": 43318, "BSTAR": 0.00011789504, "MEAN_MOTION_DOT": 6.04e-06, "MEAN_MOTION_DDOT": 0}, "tle": {"line1": "1 25504U 98060A   25345.80260890  .00000604  00000+0  11790-3 0  9991", "line2": "2 25504  24.9932 147.6746 0016628 303.6253 190.8041 14.45422604433181"}}, "geometry": {"type": "Point", "coordinates": [-123.19841353401226, 24.94180896141638]}}, {"type": "Feature", "properties": {"norad_id": 25757, "name": "DLR-TUBSAT", "group": "resource", "lat": 42.73549085700487, "lon": 159.08221766159284, "alt_km": 709.0536527356498, "timestamp": "2025-12-12T11:38:31.072603+00:00", "meta": {"OBJECT_NAME": "DLR-TUBSAT", "OBJECT_ID": "1999-029B", "EPOCH": "2025-12-12T04:24:02.433600", "MEAN_MOTION": 14.52357346, "ECCENTRICITY": 0.0013862, "INCLINATION": 98.6563, "RA_OF_ASC_NODE": 330.6799, "ARG_OF_PERICENTER": 194.5275, "MEAN_ANOMALY": 165.5522, "EPHEMERIS_TYPE": 0, "CLASSIFICATION_TYPE": "U", "NORAD_CAT_ID": 25757, "ELEMENT_SET_NO": 999, "REV_AT_EPOCH": 40610, "BSTAR": 7.302e-05, "MEAN_MOTION_DOT": 2.49e-06, "MEAN_MOTION_DDOT": 0}, "tle": {"line1": "1 25757U 99029B   25346.18336150  .00000249  00000+0  73020-4 0  9992", "line2": "2 25757  98.6563 330.6799 0013862 194.5275 165.5522 14.52357346406102"}}, "geometry": {"type": "Point", "coordinates": [159.08221766159284, 42.73549085700487]}}, {"type": "Feature", "properties": {"norad_id": 25994, "name": "TERRA", "group": "resource", "lat": -12.133190002890567, "lon": -143.54816684144842, "alt_km": 695.0270365785736, "timestamp": "2025-12-12T11:38:31.072616+00:00", "meta": {"OBJECT_NAME": "TERRA", "OBJECT_ID": "1999-068A", "EPOCH": "2025-12-12T02:47:03.105888", "MEAN_MOTION": 14.60900844, "ECCENTRICITY": 0.0003602, "INCLINATION": 97.975, "RA_OF_ASC_NODE": 37.8234, "ARG_OF_PERICENTER": 95.7408, "MEAN_ANOMALY": 316.4628, "EPHEMERIS_TYPE": 0, "CLASSIFICATION_TYPE": "U", "NORAD_CAT_ID": 25994, "ELEMENT_SET_NO": 999, "REV_AT_EPOCH": 38229, "BSTAR": 0.00016866, "MEAN_MOTION_DOT": 7.81e-06, "MEAN_MOTION_DDOT": 0}, "tle": {"line1": "1 25994U 99068A   25346.11600817  .00000781  00000+0  16866-3 0  9990", "line2": "2 25994  97.9750  37.8234 0003602  95.7408 316.4628 14.60900844382299"}}, "geometry": {"type": "Point", "coordinates": [-143.54816684144842, -12.133190002890567]}}, {"type": "Feature", "properties": {"norad_id": 27004, "name": "MAROC-TUBSAT", "group": "resource", "lat": -78.44507451655616, "lon": -82.70245630466644, "alt_km": 991.8763966796023, "timestamp": "2025-12-12T11:38:31.072628+00:00", "meta": {"OBJECT_NAME": "MAROC-TUBSAT", "OBJECT_ID": "2001-056D", "EPOCH": "2025-12-12T00:23:36.400128", "MEAN_MOTION": 13.70252839, "ECCENTRICITY": 0.0019094, "INCLINATION": 99.7912, "RA_OF_ASC_NODE": 154.4487, "ARG_OF_PERICENTER": 262.0576, "MEAN_ANOMALY": 210.9637, "EPHEMERIS_TYPE": 0, "CLASSIFICATION_TYPE": "U", "NORAD_CAT_ID": 27004, "ELEMENT_SET_NO": 999, "REV_AT_EPOCH": 20055, "BSTAR": 4.7466e-05, "MEAN_MOTION_DOT": -5e-08, "MEAN_MOTION_DDOT": 0}, "tle": {"line1": "1 27004U 01056D   25346.01639352 -.00000005  00000+0  47466-4 0  9990", "line2": "2 27004  99.7912 154.4487 0019094 262.0576 210.9637 13.70252839200556"}}, "geometry": {"type": "Point", "coordinates": [-82.70245630466644, -78.44507451655616]}}, {"type": "Feature", "properties": {"norad_id": 27424, "name": "AQUA", "group": "resource", "lat": 64.90196683335786, "lon": -71.03794332652089, "alt_km": 680.4919236409287, "timestamp": "2025-12-12T11:38:31.072640+00:00", "meta": {"OBJECT_NAME": "AQUA", "OBJECT_ID": "2002-022A", "EPOCH": "2025-12-12T05:02:00.082752", "MEAN_MOTION": 14.61807191, "ECCENTRICITY": 0.000107, "INCLINATION": 98.4037, "RA_OF_ASC_NODE": 307.0801, "ARG_OF_PERICENTER": 115.3828, "MEAN_ANOMALY": 302.7153, "EPHEMERIS_TYPE": 0, "CLASSIFICATION_TYPE": "U", "NORAD_CAT_ID": 27424, "ELEMENT_SET_NO": 999, "REV_AT_EPOCH": 25595, "BSTAR": 0.00036769, "MEAN_MOTION_DOT": 1.787e-05, "MEAN_MOTION_DDOT": 0}, "tle": {"line1": "1 27424U 02022A   25346.20972318  .00001787  00000+0  36769-3 0  9993", "line2": "2 27424  98.4037 307.0801 0001070 115.3828 302.7153 14.61807191255952"}}, "geometry": {"type": "Point", "coordinates": [-71.03794332652089, 64.90196683335786]}}, {"type": "Feature", "properties": {"norad_id": 28051, "name": "IRS-P6 (RESOURCESAT-1)", "group": "resource", "lat": -44.630125491849164, "lon": 35.104954967236225, "alt_km": 809.5532943934559, "timestamp": "2025-12-12T11:38:31.072650+00:00", "meta": {"OBJECT_NAME": "IRS-P6 (RESOURCESAT-1)", "OBJECT_ID": "2003-046A", "EPOCH": "2025-12-12T05:31:41.185920", "MEAN_MOTION": 14.36074844, "ECCENTRICITY": 0.006411, "INCLINATION": 98.2177, "RA_OF_ASC_NODE": 26.6604, "ARG_OF_PERICENTER": 182.196, "MEAN_ANOMALY": 255.9079, "EPHEMERIS_TYPE": 0, "CLASSIFICATION_TYPE": "U", "NORAD_CAT_ID": 28051, "ELEMENT_SET_NO": 999, "REV_AT_EPOCH": 15369, "BSTAR": 0.00014068, "MEAN_MOTION_DOT": 3.78e-06, "MEAN_MOTION_DDOT": 0}, "tle": {"line1": "1 28051U 03046A   25346.23033780  .00000378  00000+0  14068-3 0  9994", "line2": "2 28051  98.2177  26.6604 0064110 182.1960 255.9079 14.36074844153697"}}, "geometry": {"type": "Point", "coordinates": [35.104954967236225, -44.630125491849164]}}, {"type": "Feature", "properties": {"norad_id": 28220, "name": "SHIYAN-1 (SY-1)", "group": "resource", "lat": 74.24417735878649, "lon": -102.53647492169262, "alt_km": 477.1688533814695, "timestamp": "2025-12-12T11:38:31.072662+00:00", "meta": {"OBJECT_NAME": "SHIYAN-1 (SY-1)", "OBJECT_ID": "2004-012A", "EPOCH": "2025-12-12T03:19:56.356608", "MEAN_MOTION": 15.2811947, "ECCENTRICITY": 0.0005682, "INCLINATION": 97.8934, "RA_OF_ASC_NODE": 47.6413, "ARG_OF_PERICENTER": 327.7572, "MEAN_ANOMALY": 32.3318, "EPHEMERIS_TYPE": 0, "CLASSIFICATION_TYPE": "U", "NORAD_CAT_ID": 28220, "ELEMENT_SET_NO": 999, "REV_AT_EPOCH": 18247, "BSTAR": 0.00070988, "MEAN_MOTION_DOT": 0.00019419, "MEAN_MOTION_DDOT": 0}, "tle": {"line1": "1 28220U 04012A   25346.13884672  .00019419  00000+0  70988-3 0  9998", "line2": "2 28220  97.8934  47.6413 0005682 327.7572  32.3318 15.28119470182475"}}, "geometry": {"type": "Point", "coordinates": [-102.53647492169262, 74.24417735878649]}}, {"type": "Feature", "properties": {"norad_id": 28376, "name": "AURA", "group": "resource", "lat": -18.331524376648364, "lon": 113.93181421014377, "alt_km": 695.3816682601419, "timestamp": "2025-12-12T11:38:31.072673+00:00", "meta": {"OBJECT_NAME": "AURA", "OBJECT_ID": "2004-026A", "EPOCH": "2025-12-12T04:09:42.120288", "MEAN_MOTION": 14.60944816, "ECCENTRICITY": 0.0001226, "INCLINATION": 98.3184, "RA_OF_ASC_NODE": 296.3973, "ARG_OF_PERICENTER": 93.8546, "MEAN_ANOMALY": 266.2795, "EPHEMERIS_TYPE": 0, "CLASSIFICATION_TYPE": "U", "NORAD_CAT_ID": 28376, "ELEMENT_SET_NO": 999, "REV_AT_EPOCH": 13890, "BSTAR": 0.00037478, "MEAN_MOTION_DOT": 1.788e-05, "MEAN_MOTION_DDOT": 0}, "tle": {"line1": "1 28376U 04026A   25346.17340417  .00001788  00000+0  37478-3 0  9990", "line2": "2 28376  98.3184 296.3973 0001226  93.8546 266.2795 14.60944816138907"}}, "geometry": {"type": "Point", "coordinates": [113.93181421014377, -18.331524376648364]}}]}